{
  "type": "FeatureCollection",
  "features": [
    {
      "type": "Feature",
      "properties": {
        "norad_id": 34971,
        "name": "COSMOS 2251 DEB",
        "group": "cosmos-2251-debris",
        "lat": -38.168263150967285,
        "lon": -83.75004867332338,
        "alt_km": 760.9941226147257,
        "timestamp": "2025-12-10T11:33:53.779665+00:00",
        "meta_object_name": "COSMOS 2251 DEB",
        "meta_object_id": "1993-036AFA",
        "meta_epoch": "2025-12-09T13:13:36.252192",
        "meta_mean_motion": 14.55626239,
        "meta_eccentricity": 0.0069751,
        "meta_inclination": 73.9783,
        "meta_ra_of_asc_node": 291.0727,
        "meta_arg_of_pericenter": 157.5993,
        "meta_mean_anomaly": 326.8397,
        "meta_ephemeris_type": 0,
        "meta_classification_type": "U",
        "meta_norad_cat_id": 34971,
        "meta_element_set_no": 999,
        "meta_rev_at_epoch": 66126,
        "meta_bstar": 0.0003002,
        "meta_mean_motion_dot": 1.323e-05,
        "meta_mean_motion_ddot": 0,
        "tle_line1": "1 34971U 93036AFA 25343.55111403  .00001323  00000+0  30020-3 0  9998",
        "tle_line2": "2 34971  73.9783 291.0727 0069751 157.5993 326.8397 14.55626239661260"
      },
      "geometry": {
        "type": "Point",
        "coordinates": [
          -83.75004867332338,
          -38.168263150967285
        ]
      }
    },
    {
      "type": "Feature",
      "properties": {
        "norad_id": 34972,
        "name": "COSMOS 2251 DEB",
        "group": "cosmos-2251-debris",
        "lat": 64.21319501865943,
        "lon": 90.73656132443888,
        "alt_km": 664.8133891472053,
        "timestamp": "2025-12-10T11:33:53.779675+00:00",
        "meta_object_name": "COSMOS 2251 DEB",
        "meta_object_id": "1993-036AFB",
        "meta_epoch": "2025-12-09T04:23:50.530272",
        "meta_mean_motion": 14.72780189,
        "meta_eccentricity": 0.00340554,
        "meta_inclination": 73.9883,
        "meta_ra_of_asc_node": 56.8045,
        "meta_arg_of_pericenter": 216.3223,
        "meta_mean_anomaly": 170.8058,
        "meta_ephemeris_type": 0,
        "meta_classification_type": "U",
        "meta_norad_cat_id": 34972,
        "meta_element_set_no": 999,
        "meta_rev_at_epoch": 87598,
        "meta_bstar": 0.0017524767,
        "meta_mean_motion_dot": 0.00011289,
        "meta_mean_motion_ddot": 0,
        "tle_line1": "1 34972U 93036AFB 25343.18322373  .00011289  00000+0  17525-2 0  9994",
        "tle_line2": "2 34972  73.9883  56.8045 0034055 216.3223 170.8058 14.72780189875982"
      },
      "geometry": {
        "type": "Point",
        "coordinates": [
          90.73656132443888,
          64.21319501865943
        ]
      }
    },
    {
      "type": "Feature",
      "properties": {
        "norad_id": 34976,
        "name": "COSMOS 2251 DEB",
        "group": "cosmos-2251-debris",
        "lat": 43.66368743721023,
        "lon": 114.83363865899183,
        "alt_km": 660.5958557260292,
        "timestamp": "2025-12-10T11:33:53.779685+00:00",
        "meta_object_name": "COSMOS 2251 DEB",
        "meta_object_id": "1993-036AFF",
        "meta_epoch": "2025-12-10T04:32:22.490016",
        "meta_mean_motion": 14.7647087,
        "meta_eccentricity": 0.0047845,
        "meta_inclination": 74.0577,
        "meta_ra_of_asc_node": 311.2379,
        "meta_arg_of_pericenter": 358.5419,
        "meta_mean_anomaly": 19.8404,
        "meta_ephemeris_type": 0,
        "meta_classification_type": "U",
        "meta_norad_cat_id": 34976,
        "meta_element_set_no": 999,
        "meta_rev_at_epoch": 88236,
        "meta_bstar": 0.0023407,
        "meta_mean_motion_dot": 0.00016612,
        "meta_mean_motion_ddot": 0,
        "tle_line1": "1 34976U 93036AFF 25344.18914919  .00016612  00000+0  23407-2 0  9993",
        "tle_line2": "2 34976  74.0577 311.2379 0047845 358.5419  19.8404 14.76470870882367"
      },
      "geometry": {
        "type": "Point",
        "coordinates": [
          114.83363865899183,
          43.66368743721023
        ]
      }
    },
    {
      "type": "Feature",
      "properties": {
        "norad_id": 34979,
        "name": "COSMOS 2251 DEB",
        "group": "cosmos-2251-debris",
        "lat": 19.577691688059822,
        "lon": 85.86357879081389,
        "alt_km": 665.2453650972948,
        "timestamp": "2025-12-10T11:33:53.779695+00:00",
        "meta_object_name": "COSMOS 2251 DEB",
        "meta_object_id": "1993-036AFJ",
        "meta_epoch": "2025-12-10T04:21:14.489280",
        "meta_mean_motion": 14.79267553,
        "meta_eccentricity": 0.0049102,
        "meta_inclination": 74.0397,
        "meta_ra_of_asc_node": 272.2961,
        "meta_arg_of_pericenter": 350.7379,
        "meta_mean_anomaly": 9.2886,
        "meta_ephemeris_type": 0,
        "meta_classification_type": "U",
        "meta_norad_cat_id": 34979,
        "meta_element_set_no": 999,
        "meta_rev_at_epoch": 88182,
        "meta_bstar": 0.0020199,
        "meta_mean_motion_dot": 0.00015328,
        "meta_mean_motion_ddot": 0,
        "tle_line1": "1 34979U 93036AFJ 25344.18141770  .00015328  00000+0  20199-2 0  9991",
        "tle_line2": "2 34979  74.0397 272.2961 0049102 350.7379   9.2886 14.79267553881822"
      },
      "geometry": {
        "type": "Point",
        "coordinates": [
          85.86357879081389,
          19.577691688059822
        ]
      }
    },
    {
      "type": "Feature",
      "properties": {
        "norad_id": 34990,
        "name": "COSMOS 2251 DEB",
        "group": "cosmos-2251-debris",
        "lat": -22.48943451847212,
        "lon": 82.32383121183449,
        "alt_km": 760.507678676252,
        "timestamp": "2025-12-10T11:33:53.779705+00:00",
        "meta_object_name": "COSMOS 2251 DEB",
        "meta_object_id": "1993-036AFN",
        "meta_epoch": "2025-12-07T01:03:28.213920",
        "meta_mean_motion": 14.42350123,
        "meta_eccentricity": 0.00162731,
        "meta_inclination": 74.0455,
        "meta_ra_of_asc_node": 261.8923,
        "meta_arg_of_pericenter": 325.0179,
        "meta_mean_anomaly": 34.9906,
        "meta_ephemeris_type": 0,
        "meta_classification_type": "U",
        "meta_norad_cat_id": 34990,
        "meta_element_set_no": 999,
        "meta_rev_at_epoch": 87264,
        "meta_bstar": 0.00072596004,
        "meta_mean_motion_dot": 2.377e-05,
        "meta_mean_motion_ddot": 0,
        "tle_line1": "1 34990U 93036AFN 25341.04407655  .00002377  00000+0  72596-3 0  9992",
        "tle_line2": "2 34990  74.0455 261.8923 0016273 325.0179  34.9906 14.42350123872642"
      },
      "geometry": {
        "type": "Point",
        "coordinates": [
          82.32383121183449,
          -22.48943451847212
        ]
      }
    },
    {
      "type": "Feature",
      "properties": {
        "norad_id": 34997,
        "name": "COSMOS 2251 DEB",
        "group": "cosmos-2251-debris",
        "lat": -15.29830123998178,
        "lon": -49.08902043921741,
        "alt_km": 702.6543135627653,
        "timestamp": "2025-12-10T11:33:53.779714+00:00",
        "meta_object_name": "COSMOS 2251 DEB",
        "meta_object_id": "1993-036AFV",
        "meta_epoch": "2025-12-09T15:42:21.613248",
        "meta_mean_motion": 14.45493878,
        "meta_eccentricity": 0.0097903,
        "meta_inclination": 73.8812,
        "meta_ra_of_asc_node": 317.0047,
        "meta_arg_of_pericenter": 292.5764,
        "meta_mean_anomaly": 66.5057,
        "meta_ephemeris_type": 0,
        "meta_classification_type": "U",
        "meta_norad_cat_id": 34997,
        "meta_element_set_no": 999,
        "meta_rev_at_epoch": 70702,
        "meta_bstar": 0.0029443,
        "meta_mean_motion_dot": 0.00010999,
        "meta_mean_motion_ddot": 0,
        "tle_line1": "1 34997U 93036AFV 25343.65441682  .00010999  00000+0  29443-2 0  9997",
        "tle_line2": "2 34997  73.8812 317.0047 0097903 292.5764  66.5057 14.45493878707026"
      },
      "geometry": {
        "type": "Point",
        "coordinates": [
          -49.08902043921741,
          -15.29830123998178
        ]
      }
    },
    {
      "type": "Feature",
      "properties": {
        "norad_id": 34998,
        "name": "COSMOS 2251 DEB",
        "group": "cosmos-2251-debris",
        "lat": -11.618630271071622,
        "lon": -12.393854494204678,
        "alt_km": 738.9974168954086,
        "timestamp": "2025-12-10T11:33:53.779724+00:00",
        "meta_object_name": "COSMOS 2251 DEB",
        "meta_object_id": "1993-036AFW",
        "meta_epoch": "2025-12-09T11:37:03.426816",
        "meta_mean_motion": 14.4925952,
        "meta_eccentricity": 0.00210124,
        "meta_inclination": 74.0095,
        "meta_ra_of_asc_node": 166.0998,
        "meta_arg_of_pericenter": 311.9127,
        "meta_mean_anomaly": 76.4992,
        "meta_ephemeris_type": 0,
        "meta_classification_type": "U",
        "meta_norad_cat_id": 34998,
        "meta_element_set_no": 999,
        "meta_rev_at_epoch": 87373,
        "meta_bstar": 0.00089460042,
        "meta_mean_motion_dot": 3.394e-05,
        "meta_mean_motion_ddot": 0,
        "tle_line1": "1 34998U 93036AFW 25343.48406744  .00003394  00000+0  89460-3 0  9996",
        "tle_line2": "2 34998  74.0095 166.0998 0021012 311.9127  76.4992 14.49259520873735"
      },
      "geometry": {
        "type": "Point",
        "coordinates": [
          -12.393854494204678,
          -11.618630271071622
        ]
      }
    }
  ]
}